NORAD_CAT_ID,OBJECT_NAME,OBJECT_TYPE,EPOCH,MEAN_MOTION,ECCENTRICITY,INCLINATION,RA_OF_ASC_NODE,ARG_OF_PERICENTER,MEAN_ANOMALY,BSTAR,MEAN_MOTION_DOT,MEAN_MOTION_DDOT,TLE_LINE0,TLE_LINE1,TLE_LINE2,SEMIMAJOR_AXIS,PERIOD,APOGEE,PERIGEE,DECAYED
51147.0,STARLINK-3352,PAYLOAD,2022-05-27 14:00:01,15.08793798,0.00016,53.2195,33.6402,69.1127,250.7966,0.0031745,0.00050533,0.0,0 STARLINK-3352,1 51147U 22005AV  22147.58334491  .00050533  00000-0  31745-2 0  9998,2 51147  53.2195  33.6402 0001600  69.1127 250.7966 15.08793798 21067,6918.022,95.44,540.993,538.78,0.0
51147.0,STARLINK-3352,PAYLOAD,2022-05-27 22:00:01,15.08859993,0.0001595999999999,53.2195,32.1456,62.1891,269.3736,-0.00056219,-9.229e-05,0.0,0 STARLINK-3352,1 51147U 22005AV  22147.91668981 -.00009229  00000-0 -56219-3 0  9991,2 51147  53.2195  32.1456 0001596  62.1891 269.3736 15.08859993 21112,6917.819,95.436,540.788,538.58,0.0
51147.0,STARLINK-3352,PAYLOAD,2022-05-27 22:07:36,15.08838457,0.000164,53.2206,32.1198,54.9791,305.1355,2.6179e-05,1.29e-06,0.0,0 STARLINK-3352,1 51147U 22005AV  22147.92194615  .00000129  00000-0  26179-4 0  9991,2 51147  53.2206  32.1198 0001640  54.9791 305.1355 15.08838457 19997,6917.885,95.438,540.885,538.616,0.0
51147.0,STARLINK-3352,PAYLOAD,2022-05-28 14:00:01,15.08832662,0.0001374,53.2191,29.1515,66.6668,288.0712,0.0031366,0.00049975,0.0,0 STARLINK-3352,1 51147U 22005AV  22148.58334491  .00049975  00000-0  31366-2 0  9996,2 51147  53.2191  29.1515 0001374  66.6668 288.0712 15.08832662  1300,6917.903,95.438,540.7180000000002,538.817,0.0
51147.0,STARLINK-3352,PAYLOAD,2022-05-28 20:22:58,15.08851667,0.0001849,53.2212,27.9578,62.6643,297.4537,7.9922e-05,9.84e-06,0.0,0 STARLINK-3352,1 51147U 22005AV  22148.84929153  .00000984  00000-0  79922-4 0  9999,2 51147  53.2212  27.9578 0001849  62.6643 297.4537 15.08851667 21256,6917.845,95.437,540.989,538.431,0.0
51147.0,STARLINK-3352,PAYLOAD,2022-05-29 14:00:01,15.08809046,0.0001553,53.219,24.6627,67.2869,322.2491,0.00060038,9.272e-05,0.0,0 STARLINK-3352,1 51147U 22005AV  22149.58334491  .00009272  00000-0  60038-3 0  9992,2 51147  53.2190  24.6627 0001553  67.2869 322.2491 15.08809046 21365,6917.975,95.44,540.914,538.766,0.0
51147.0,STARLINK-3352,PAYLOAD,2022-05-29 21:49:09,15.08837925,0.00018,53.2207,23.1985,67.62100000000001,292.4973,-8.4341e-05,-1.63e-05,0.0,0 STARLINK-3352,1 51147U 22005AV  22149.90914346 -.00001630  00000-0 -84341-4 0  9997,2 51147  53.2207  23.1985 0001800  67.6210 292.4973 15.08837925 20295,6917.887,95.438,540.997,538.507,0.0
51147.0,STARLINK-3352,PAYLOAD,2022-05-30 14:00:01,15.08810324,0.0001663,53.2192,20.1738,67.9703,356.26199999999994,0.0029976,0.00047703,0.0,0 STARLINK-3352,1 51147U 22005AV  22150.58334491  .00047703  00000-0  29976-2 0  9990,2 51147  53.2192  20.1738 0001663  67.9703 356.2620 15.08810324  1301,6917.971,95.439,540.987,538.686,0.0
51147.0,STARLINK-3352,PAYLOAD,2022-05-30 21:39:57,15.08835335,0.0001579,53.2208,18.7388,65.036,295.0796,-8.9483e-05,-1.712e-05,0.0,0 STARLINK-3352,1 51147U 22005AV  22150.90274728 -.00001712  00000-0 -89483-4 0  9995,2 51147  53.2208  18.7388 0001579  65.0360 295.0796 15.08835335 20446,6917.895,95.438,540.852,538.6669999999998,0.0
51147.0,STARLINK-3352,PAYLOAD,2022-05-30 22:00:00,15.08837016,0.0001822,53.2192,18.6793,62.3661,13.442,-0.00044719,-7.398e-05,0.0,0 STARLINK-3352,1 51147U 22005AV  22150.91667824 -.00007398  00000-0 -44719-3 0  9997,2 51147  53.2192  18.6793 0001822  62.3661  13.4420 15.08837016 21571,6917.89,95.438,541.015,538.494,0.0
51147.0,STARLINK-3352,PAYLOAD,2022-05-31 06:00:02,15.08861449,0.000175,53.2193,17.1825,60.6825,26.771,-0.0022008,-0.00035164,0.0,0 STARLINK-3352,1 51147U 22005AV  22151.25002315 -.00035164  00000-0 -22008-2 0  9991,2 51147  53.2193  17.1825 0001750  60.6825  26.7710 15.08861449  1300,6917.815,95.436,540.89,538.469,0.0
51147.0,STARLINK-3352,PAYLOAD,2022-05-31 22:00:00,15.08831993,0.0001758,53.2195,14.1904,61.0783,49.5066,-0.00011628,-2.138e-05,0.0,0 STARLINK-3352,1 51147U 22005AV  22151.91667824 -.00002138  00000-0 -11628-3 0  9998,2 51147  53.2195  14.1904 0001758  61.0783  49.5066 15.08831993  1301,6917.905,95.438,540.986,538.554,0.0
51147.0,STARLINK-3352,PAYLOAD,2022-06-01 06:00:00,15.08854148,0.0001691,53.2194,12.6935,61.0094,61.1556,-0.0014461,-0.00023238,0.0,0 STARLINK-3352,1 51147U 22005AV  22152.25001157 -.00023238  00000-0 -14461-2 0  9998,2 51147  53.2194  12.6935 0001691  61.0094  61.1556 15.08854148 21772,6917.837,95.437,540.872,538.5319999999998,0.0
51147.0,STARLINK-3352,PAYLOAD,2022-06-01 20:00:01,15.08871366,0.0001684,53.2197,10.0752,62.3623,350.102,-0.0031498,-0.00050112,0.0,0 STARLINK-3352,1 51147U 22005AV  22152.83334491 -.00050112  00000-0 -31498-2 0  9992,2 51147  53.2197  10.0752 0001684  62.3623 350.1020 15.08871366 21855,6917.785,95.436,540.814,538.485,0.0
51147.0,STARLINK-3352,PAYLOAD,2022-06-02 16:26:09,15.08833097,0.0001613,53.221,6.2519,66.3674,293.7487,1.3839e-05,-6.8e-07,0.0,0 STARLINK-3352,1 51147U 22005AV  22153.68483543 -.00000068  00000-0  13839-4 0  9994,2 51147  53.2210   6.2519 0001613  66.3674 293.7487 15.08833097 21983,6917.901,95.438,540.882,538.651,0.0
51147.0,STARLINK-3352,PAYLOAD,2022-06-02 21:12:19,15.08834771,0.000161,53.221,5.36,64.6693,295.4466,2.7299e-05,1.46e-06,0.0,0 STARLINK-3352,1 51147U 22005AV  22153.88355473  .00000146  00000-0  27299-4 0  9997,2 51147  53.2210   5.3600 0001610  64.6693 295.4466 15.08834771 20898,6917.896,95.438,540.875,538.648,0.0
51147.0,STARLINK-3352,PAYLOAD,2022-06-03 13:06:10,15.08840216,0.0001624,53.2207,2.3863,64.9437,295.1724,6.3959e-05,7.299999999999999e-06,0.0,0 STARLINK-3352,1 51147U 22005AV  22154.54595147  .00000730  00000-0  63959-4 0  9997,2 51147  53.2207   2.3863 0001624  64.9437 295.1724 15.08840216 22118,6917.88,95.438,540.868,538.621,0.0
51147.0,STARLINK-3352,PAYLOAD,2022-06-03 19:27:42,15.08846638,0.0001629,53.2207,1.197,68.6081,291.5085,6.4778e-05,7.43e-06,0.0,0 STARLINK-3352,1 51147U 22005AV  22154.81090681  .00000743  00000-0  64778-4 0  9994,2 51147  53.2207   1.1970 0001629  68.6081 291.5085 15.08846638 21039,6917.86,95.437,540.852,538.5980000000002,0.0
51147.0,STARLINK-3352,PAYLOAD,2022-06-04 03:24:38,15.08835768,0.0001704,53.2206,359.7102,66.0488,294.0682,-2.5558e-05,-6.95e-06,0.0,0 STARLINK-3352,1 51147U 22005AV  22155.14211723 -.00000695  00000-0 -25558-4 0  9994,2 51147  53.2206 359.7102 0001704  66.0488 294.0682 15.08835768 22207,6917.893,95.438,540.937,538.58,0.0
51147.0,STARLINK-3352,PAYLOAD,2022-06-04 12:56:57,15.08838992,0.0001689,53.2205,357.9259,68.1139,292.0032,-2.7841e-05,-7.31e-06,0.0,0 STARLINK-3352,1 51147U 22005AV  22155.53955564 -.00000731  00000-0 -27841-4 0  9993,2 51147  53.2205 357.9259 0001689  68.1139 292.0032 15.08838992 21148,6917.8830000000025,95.438,540.9169999999998,538.58,0.0
51147.0,STARLINK-3352,PAYLOAD,2022-06-05 22:00:00,15.08815401,0.0001678,53.219,351.746,64.4217,220.0986,0.0014662,0.00023108,0.0,0 STARLINK-3352,1 51147U 22005AV  22156.91667824  .00023108  00000-0  14662-2 0  9991,2 51147  53.2190 351.7460 0001678  64.4217 220.0986 15.08815401 22477,6917.956,95.439,540.981,538.66,0.0
51147.0,STARLINK-3352,PAYLOAD,2022-06-06 14:00:01,15.08845611,0.0001605,53.2191,348.7518,72.3752,235.3028,3.162e-05,2.15e-06,0.0,0 STARLINK-3352,1 51147U 22005AV  22157.58334491  .00000215  00000-0  31620-4 0  9995,2 51147  53.2191 348.7518 0001605  72.3752 235.3028 15.08845611  1301,6917.863,95.437,540.839,538.618,0.0
51147.0,STARLINK-3352,PAYLOAD,2022-06-06 20:35:27,15.08842592,0.0001663,53.2203,347.5187,69.5447,290.5723,8.649e-05,1.089e-05,0.0,0 STARLINK-3352,1 51147U 22005AV  22157.85795253  .00001089  00000-0  86490-4 0  9997,2 51147  53.2203 347.5187 0001663  69.5447 290.5723 15.08842592 21499,6917.871999999999,95.437,540.888,538.587,0.0
51147.0,STARLINK-3352,PAYLOAD,2022-06-06 22:00:00,15.0882577,0.0001713,53.2192,347.2572,63.7309,255.5539,0.0023917,0.00037967,0.0,0 STARLINK-3352,1 51147U 22005AV  22157.91667824  .00037967  00000-0  23917-2 0  9993,2 51147  53.2192 347.2572 0001713  63.7309 255.5539 15.08825770 22621,6917.924,95.438,540.974,538.604,0.0
51147.0,STARLINK-3352,PAYLOAD,2022-06-07 12:29:17,15.08849909,0.0001663,53.2202,344.545,70.125,289.9921,0.00011273,1.507e-05,0.0,0 STARLINK-3352,1 51147U 22005AV  22158.52034541  .00001507  00000-0  11273-3 0  9999,2 51147  53.2202 344.5450 0001663  70.1250 289.9921 15.08849909 22715,6917.85,95.437,540.866,538.565,0.0
51147.0,STARLINK-3352,PAYLOAD,2022-06-07 18:50:50,15.08843116,0.0001656,53.2198,343.356,69.0533,291.0636,4.982800000000001e-05,5.05e-06,0.0,0 STARLINK-3352,1 51147U 22005AV  22158.78531003  .00000505  00000-0  49828-4 0  9997,2 51147  53.2198 343.3560 0001656  69.0533 291.0636 15.08843116 22756,6917.871,95.437,540.881,538.59,0.0
51147.0,STARLINK-3352,PAYLOAD,2022-06-07 20:26:13,15.08841409,0.0001635,53.2198,343.0586,68.9361,291.1805,1.5617e-05,-3.9e-07,0.0,0 STARLINK-3352,1 51147U 22005AV  22158.85155086 -.00000039  00000-0  15617-4 0  9990,2 51147  53.2198 343.0586 0001635  68.9361 291.1805 15.08841409 21644,6917.876,95.437,540.872,538.61,0.0
51147.0,STARLINK-3352,PAYLOAD,2022-06-08 12:20:05,15.08846941,0.0001561,53.2196,340.0852,67.666,292.4497,0.00019154,2.762e-05,0.0,0 STARLINK-3352,1 51147U 22005AV  22159.51394715  .00002762  00000-0  19154-3 0  9991,2 51147  53.2196 340.0852 0001561  67.6660 292.4497 15.08846941 21749,6917.859,95.437,540.804,538.644,0.0
51147.0,STARLINK-3352,PAYLOAD,2022-06-08 20:17:00,15.08837614,0.0001657,53.2189,338.5983,67.7313,292.3855,1.1126e-05,-1.11e-06,0.0,0 STARLINK-3352,1 51147U 22005AV  22159.84514897 -.00000111  00000-0  11126-4 0  9991,2 51147  53.2189 338.5983 0001657  67.7313 292.3855 15.08837614 21799,6917.888000000001,95.438,540.899,538.606,0.0
